{
  "type": "FeatureCollection",
  "features": [
    {
      "type": "Feature",
      "properties": {
        "norad_id": 31448,
        "name": "FENGYUN 1C DEB",
        "group": "fengyun-1c-debris",
        "lat": 77.18470481578247,
        "lon": -35.333706002099184,
        "alt_km": 798.9891883245637,
        "timestamp": "2025-12-20T16:47:36.569099+00:00",
        "meta_object_name": "FENGYUN 1C DEB",
        "meta_object_id": "1999-025BUL",
        "meta_epoch": "2025-12-11T07:02:55.403520",
        "meta_mean_motion": 14.278066,
        "meta_eccentricity": 0.00588763,
        "meta_inclination": 98.5011,
        "meta_ra_of_asc_node": 356.6233,
        "meta_arg_of_pericenter": 208.3666,
        "meta_mean_anomaly": 151.4306,
        "meta_ephemeris_type": 0,
        "meta_classification_type": "U",
        "meta_norad_cat_id": 31448,
        "meta_element_set_no": 999,
        "meta_rev_at_epoch": 64283,
        "meta_bstar": 0.0011152887,
        "meta_mean_motion_dot": 2.766e-05,
        "meta_mean_motion_ddot": 0,
        "tle_line1": "1 31448U 99025BUL 25345.29369680  .00002766  00000+0  11153-2 0  9990",
        "tle_line2": "2 31448  98.5011 356.6233 0058876 208.3666 151.4306 14.27806600642836"
      },
      "geometry": {
        "type": "Point",
        "coordinates": [
          -35.333706002099184,
          77.18470481578247
        ]
      }
    },
    {
      "type": "Feature",
      "properties": {
        "norad_id": 31449,
        "name": "FENGYUN 1C DEB",
        "group": "fengyun-1c-debris",
        "lat": -51.767290841187794,
        "lon": -137.88550974152727,
        "alt_km": 685.4166699847337,
        "timestamp": "2025-12-20T16:47:36.569110+00:00",
        "meta_object_name": "FENGYUN 1C DEB",
        "meta_object_id": "1999-025BUM",
        "meta_epoch": "2025-12-20T10:40:43.618656",
        "meta_mean_motion": 14.33719628,
        "meta_eccentricity": 0.014416,
        "meta_inclination": 98.5539,
        "meta_ra_of_asc_node": 52.876,
        "meta_arg_of_pericenter": 245.7554,
        "meta_mean_anomaly": 112.8511,
        "meta_ephemeris_type": 0,
        "meta_classification_type": "U",
        "meta_norad_cat_id": 31449,
        "meta_element_set_no": 999,
        "meta_rev_at_epoch": 97747,
        "meta_bstar": 0.0001671,
        "meta_mean_motion_dot": 4.73e-06,
        "meta_mean_motion_ddot": 0,
        "tle_line1": "1 31449U 99025BUM 25354.44494929  .00000473  00000+0  16710-3 0  9991",
        "tle_line2": "2 31449  98.5539  52.8760 0144160 245.7554 112.8511 14.33719628977475"
      },
      "geometry": {
        "type": "Point",
        "coordinates": [
          -137.88550974152727,
          -51.767290841187794
        ]
      }
    },
    {
      "type": "Feature",
      "properties": {
        "norad_id": 31451,
        "name": "FENGYUN 1C DEB",
        "group": "fengyun-1c-debris",
        "lat": 30.2549785148148,
        "lon": -138.2267441715387,
        "alt_km": 827.7350863361389,
        "timestamp": "2025-12-20T16:47:36.569120+00:00",
        "meta_object_name": "FENGYUN 1C DEB",
        "meta_object_id": "1999-025BUP",
        "meta_epoch": "2025-12-17T01:35:52.740960",
        "meta_mean_motion": 14.13630438,
        "meta_eccentricity": 0.00314143,
        "meta_inclination": 98.7632,
        "meta_ra_of_asc_node": 33.0517,
        "meta_arg_of_pericenter": 198.9237,
        "meta_mean_anomaly": 191.5319,
        "meta_ephemeris_type": 0,
        "meta_classification_type": "U",
        "meta_norad_cat_id": 31451,
        "meta_element_set_no": 999,
        "meta_rev_at_epoch": 96071,
        "meta_bstar": 0.00034950868,
        "meta_mean_motion_dot": 6.19e-06,
        "meta_mean_motion_ddot": 0,
        "tle_line1": "1 31451U 99025BUP 25351.06658265  .00000619  00000+0  34951-3 0  9993",
        "tle_line2": "2 31451  98.7632  33.0517 0031414 198.9237 191.5319 14.13630438960717"
      },
      "geometry": {
        "type": "Point",
        "coordinates": [
          -138.2267441715387,
          30.2549785148148
        ]
      }
    },
    {
      "type": "Feature",
      "properties": {
        "norad_id": 31452,
        "name": "FENGYUN 1C DEB",
        "group": "fengyun-1c-debris",
        "lat": 81.29902058405153,
        "lon": -113.9817238170772,
        "alt_km": 805.6202959421335,
        "timestamp": "2025-12-20T16:47:36.569130+00:00",
        "meta_object_name": "FENGYUN 1C DEB",
        "meta_object_id": "1999-025BUQ",
        "meta_epoch": "2025-12-17T05:13:17.668704",
        "meta_mean_motion": 14.15174584,
        "meta_eccentricity": 0.00409624,
        "meta_inclination": 98.6577,
        "meta_ra_of_asc_node": 338.0277,
        "meta_arg_of_pericenter": 115.448,
        "meta_mean_anomaly": 245.0941,
        "meta_ephemeris_type": 0,
        "meta_classification_type": "U",
        "meta_norad_cat_id": 31452,
        "meta_element_set_no": 999,
        "meta_rev_at_epoch": 96269,
        "meta_bstar": 0.00032143342,
        "meta_mean_motion_dot": 5.87e-06,
        "meta_mean_motion_ddot": 0,
        "tle_line1": "1 31452U 99025BUQ 25351.21756561  .00000587  00000+0  32143-3 0  9994",
        "tle_line2": "2 31452  98.6577 338.0277 0040962 115.4480 245.0941 14.15174584962690"
      },
      "geometry": {
        "type": "Point",
        "coordinates": [
          -113.9817238170772,
          81.29902058405153
        ]
      }
    },
    {
      "type": "Feature",
      "properties": {
        "norad_id": 31455,
        "name": "FENGYUN 1C DEB",
        "group": "fengyun-1c-debris",
        "lat": -39.37369706343505,
        "lon": -10.306609784332688,
        "alt_km": 799.8346476377983,
        "timestamp": "2025-12-20T16:47:36.569140+00:00",
        "meta_object_name": "FENGYUN 1C DEB",
        "meta_object_id": "1999-025BUT",
        "meta_epoch": "2025-12-20T05:04:03.520704",
        "meta_mean_motion": 14.11438755,
        "meta_eccentricity": 0.0218316,
        "meta_inclination": 98.5747,
        "meta_ra_of_asc_node": 342.1137,
        "meta_arg_of_pericenter": 30.0004,
        "meta_mean_anomaly": 331.3471,
        "meta_ephemeris_type": 0,
        "meta_classification_type": "U",
        "meta_norad_cat_id": 31455,
        "meta_element_set_no": 999,
        "meta_rev_at_epoch": 96209,
        "meta_bstar": 0.0002155,
        "meta_mean_motion_dot": 4.46e-06,
        "meta_mean_motion_ddot": 0,
        "tle_line1": "1 31455U 99025BUT 25354.21115186  .00000446  00000+0  21550-3 0  9996",
        "tle_line2": "2 31455  98.5747 342.1137 0218316  30.0004 331.3471 14.11438755962096"
      },
      "geometry": {
        "type": "Point",
        "coordinates": [
          -10.306609784332688,
          -39.37369706343505
        ]
      }
    },
    {
      "type": "Feature",
      "properties": {
        "norad_id": 31456,
        "name": "FENGYUN 1C DEB",
        "group": "fengyun-1c-debris",
        "lat": 66.92846715632042,
        "lon": -62.15581975050625,
        "alt_km": 792.1357241572705,
        "timestamp": "2025-12-20T16:47:36.569153+00:00",
        "meta_object_name": "FENGYUN 1C DEB",
        "meta_object_id": "1999-025BUU",
        "meta_epoch": "2025-12-17T13:21:30.732480",
        "meta_mean_motion": 14.42423971,
        "meta_eccentricity": 0.00676593,
        "meta_inclination": 98.5778,
        "meta_ra_of_asc_node": 93.9301,
        "meta_arg_of_pericenter": 299.6577,
        "meta_mean_anomaly": 59.7886,
        "meta_ephemeris_type": 0,
        "meta_classification_type": "U",
        "meta_norad_cat_id": 31456,
        "meta_element_set_no": 999,
        "meta_rev_at_epoch": 97536,
        "meta_bstar": 0.0006424571,
        "meta_mean_motion_dot": 2.138e-05,
        "meta_mean_motion_ddot": 0,
        "tle_line1": "1 31456U 99025BUU 25351.55660570  .00002138  00000+0  64246-3 0  9992",
        "tle_line2": "2 31456  98.5778  93.9301 0067659 299.6577  59.7886 14.42423971975368"
      },
      "geometry": {
        "type": "Point",
        "coordinates": [
          -62.15581975050625,
          66.92846715632042
        ]
      }
    },
    {
      "type": "Feature",
      "properties": {
        "norad_id": 31459,
        "name": "FENGYUN 1C DEB",
        "group": "fengyun-1c-debris",
        "lat": 74.66508442432016,
        "lon": 114.27888035146717,
        "alt_km": 670.8138006327363,
        "timestamp": "2025-12-20T16:47:36.569163+00:00",
        "meta_object_name": "FENGYUN 1C DEB",
        "meta_object_id": "1999-025BUX",
        "meta_epoch": "2025-12-12T23:44:38.705568",
        "meta_mean_motion": 14.44083824,
        "meta_eccentricity": 0.00940456,
        "meta_inclination": 98.1765,
        "meta_ra_of_asc_node": 255.2445,
        "meta_arg_of_pericenter": 130.906,
        "meta_mean_anomaly": 230.0325,
        "meta_ephemeris_type": 0,
        "meta_classification_type": "U",
        "meta_norad_cat_id": 31459,
        "meta_element_set_no": 999,
        "meta_rev_at_epoch": 64561,
        "meta_bstar": 0.0020176648,
        "meta_mean_motion_dot": 7.253e-05,
        "meta_mean_motion_ddot": 0,
        "tle_line1": "1 31459U 99025BUX 25346.98933687  .00007253  00000+0  20177-2 0  9995",
        "tle_line2": "2 31459  98.1765 255.2445 0094045 130.9060 230.0325 14.44083824645613"
      },
      "geometry": {
        "type": "Point",
        "coordinates": [
          114.27888035146717,
          74.66508442432016
        ]
      }
    }
  ]
}